NORAD_CAT_ID,OBJECT_NAME,OBJECT_TYPE,EPOCH,MEAN_MOTION,ECCENTRICITY,INCLINATION,RA_OF_ASC_NODE,ARG_OF_PERICENTER,MEAN_ANOMALY,BSTAR,MEAN_MOTION_DOT,MEAN_MOTION_DDOT,TLE_LINE0,TLE_LINE1,TLE_LINE2,SEMIMAJOR_AXIS,PERIOD,APOGEE,PERIGEE,DECAYED
51776.0,STARLINK-3608,PAYLOAD,2022-10-16 20:12:48,15.08833514,0.0001421,53.2181,145.0132,61.7583,298.3553,-0.00014908,-2.659e-05,0.0,0 STARLINK-3608,1 51776U 22017J   22289.84223263 -.00002659  00000-0 -14908-3 0  9990,2 51776  53.2181 145.0132 0001421  61.7583 298.3553 15.08833514 35395,6917.9,95.438,540.748,538.7819999999998,0.0
51776.0,STARLINK-3608,PAYLOAD,2022-10-16 23:23:35,15.08835444,0.000151,53.2177,144.4184,52.0113,308.1015,-0.00012243,-2.236e-05,0.0,0 STARLINK-3608,1 51776U 22017J   22289.97471110 -.00002236  00000-0 -12243-3 0  9991,2 51776  53.2177 144.4184 0001510  52.0113 308.1015 15.08835444 35411,6917.894,95.438,540.804,538.715,0.0
51776.0,STARLINK-3608,PAYLOAD,2022-10-17 18:28:11,15.0884176,0.0001629,53.2173,140.8498,50.9898,309.1239,-6.0624e-06,-3.85e-06,0.0,0 STARLINK-3608,1 51776U 22017J   22290.76958269 -.00000385  00000-0 -60624-5 0  9996,2 51776  53.2173 140.8498 0001629  50.9898 309.1239 15.08841760 35533,6917.875,95.437,540.867,538.613,0.0
51776.0,STARLINK-3608,PAYLOAD,2022-10-17 20:03:35,15.08842151,0.0001636999999999,53.2174,140.5524,52.8026,307.3115,-5.9876e-06,-3.83e-06,0.0,0 STARLINK-3608,1 51776U 22017J   22290.83582234 -.00000383  00000-0 -59876-5 0  9994,2 51776  53.2174 140.5524 0001637  52.8026 307.3115 15.08842151 37039,6917.874,95.437,540.871,538.606,0.0
51776.0,STARLINK-3608,PAYLOAD,2022-10-18 07:11:16,15.08843088,0.0001709,53.2176,138.4707,53.2276,306.8873,4.8953e-05,4.91e-06,0.0,0 STARLINK-3608,1 51776U 22017J   22291.29949906  .00000491  00000-0  48953-4 0  9999,2 51776  53.2176 138.4707 0001709  53.2276 306.8873 15.08843088 35619,6917.871,95.437,540.918,538.554,0.0
51776.0,STARLINK-3608,PAYLOAD,2022-10-18 19:54:22,15.08829311,0.0001601,53.2178,136.0925,62.0772,298.0382,6.2286e-05,7.03e-06,0.0,0 STARLINK-3608,1 51776U 22017J   22291.82942792  .00000703  00000-0  62286-4 0  9995,2 51776  53.2178 136.0925 0001601  62.0772 298.0382 15.08829311 37181,6917.913000000001,95.438,540.886,538.6709999999998,0.0
51776.0,STARLINK-3608,PAYLOAD,2022-10-19 13:23:36,15.08845146,0.0001661,53.2178,132.8212,62.2434,297.8726,2.6744e-05,1.38e-06,0.0,0 STARLINK-3608,1 51776U 22017J   22292.55806036  .00000138  00000-0  26744-4 0  9997,2 51776  53.2178 132.8212 0001661  62.2434 297.8726 15.08845146 37292,6917.865,95.437,540.879,538.581,0.0
51776.0,STARLINK-3608,PAYLOAD,2022-10-19 19:45:08,15.08846854,0.0001686999999999,53.2179,131.6323,61.3446,298.7716,4.0409e-05,3.55e-06,0.0,0 STARLINK-3608,1 51776U 22017J   22292.82301762  .00000355  00000-0  40409-4 0  9998,2 51776  53.2179 131.6323 0001687  61.3446 298.7716 15.08846854 35849,6917.859,95.437,540.891,538.557,0.0
51776.0,STARLINK-3608,PAYLOAD,2022-10-20 11:39:00,15.08837087,0.0002231999999999,53.2165,128.6594,51.9296,308.1898,-1.4229e-05,-5.15e-06,0.0,0 STARLINK-3608,1 51776U 22017J   22293.48542542 -.00000515  00000-0 -14229-4 0  9995,2 51776  53.2165 128.6594 0002232  51.9296 308.1898 15.08837087 37437,6917.889,95.438,541.298,538.21,0.0
51776.0,STARLINK-3608,PAYLOAD,2022-10-20 19:35:56,15.08838328,0.0001720999999999,53.2174,127.1717,56.3889,303.7267,3.4814e-05,2.66e-06,0.0,0 STARLINK-3608,1 51776U 22017J   22293.81662265  .00000266  00000-0  34814-4 0  9990,2 51776  53.2174 127.1717 0001721  56.3889 303.7267 15.08838328 35996,6917.885,95.438,540.941,538.56,0.0
51776.0,STARLINK-3608,PAYLOAD,2022-10-21 13:05:10,15.08845984,0.0001784,53.2167,123.9003,56.4425,303.6737,-2.722e-05,-7.21e-06,0.0,0 STARLINK-3608,1 51776U 22017J   22294.54525864 -.00000721  00000-0 -27220-4 0  9995,2 51776  53.2167 123.9003 0001784  56.4425 303.6737 15.08845984 36107,6917.861999999999,95.437,540.961,538.493,0.0
51776.0,STARLINK-3608,PAYLOAD,2022-10-21 19:26:43,15.08840377,0.0001796,53.2169,122.7103,58.457,301.6598,-6.519e-05,-1.325e-05,0.0,0 STARLINK-3608,1 51776U 22017J   22294.81022287 -.00001325  00000-0 -65190-4 0  9995,2 51776  53.2169 122.7103 0001796  58.4570 301.6598 15.08840377 37636,6917.879,95.438,540.987,538.502,0.0
51776.0,STARLINK-3608,PAYLOAD,2022-10-22 11:20:34,15.08836076,0.0001786999999999,53.2179,119.7376,58.889,301.2277,-6.9813e-06,-3.99e-06,0.0,0 STARLINK-3608,1 51776U 22017J   22295.47262484 -.00000399  00000-0 -69813-5 0  9990,2 51776  53.2179 119.7376 0001787  58.8890 301.2277 15.08836076 36241,6917.892,95.438,540.994,538.521,0.0
51776.0,STARLINK-3608,PAYLOAD,2022-10-22 19:17:29,15.08842415,0.0001671,53.2181,118.2508,57.85,302.2655,3.9323e-05,3.38e-06,0.0,0 STARLINK-3608,1 51776U 22017J   22295.80381928  .00000338  00000-0  39323-4 0  9995,2 51776  53.2181 118.2508 0001671  57.8500 302.2655 15.08842415 36294,6917.873000000001,95.437,540.894,538.582,0.0
51776.0,STARLINK-3608,PAYLOAD,2022-10-23 12:46:44,15.08838538,0.0001745,53.2181,114.9804,60.9531,299.1635,5.4915e-05,5.86e-06,0.0,0 STARLINK-3608,1 51776U 22017J   22296.53245911  .00000586  00000-0  54915-4 0  9996,2 51776  53.2181 114.9804 0001745  60.9531 299.1635 15.08838538 37897,6917.885,95.438,540.957,538.543,0.0
51776.0,STARLINK-3608,PAYLOAD,2022-10-23 19:08:17,15.08833649,0.000171,53.2179,113.7901,57.3391,302.7766,7.9536e-06,-1.61e-06,0.0,0 STARLINK-3608,1 51776U 22017J   22296.79742423 -.00000161  00000-0  79536-5 0  9991,2 51776  53.2179 113.7901 0001710  57.3391 302.7766 15.08833649 36449,6917.9,95.438,540.948,538.582,0.0
51776.0,STARLINK-3608,PAYLOAD,2022-10-23 22:19:03,15.08834228,0.0001696999999999,53.2179,113.195,55.036,305.0792,8.9625e-06,-1.45e-06,0.0,0 STARLINK-3608,1 51776U 22017J   22296.92990416 -.00000145  00000-0  89625-5 0  9995,2 51776  53.2179 113.1950 0001697  55.0360 305.0792 15.08834228 37958,6917.898,95.438,540.937,538.589,0.0
51776.0,STARLINK-3608,PAYLOAD,2022-10-24 12:37:32,15.0883381,0.0001634,53.2183,110.5185,60.2039,299.9116,-2.5546e-05,-6.95e-06,0.0,0 STARLINK-3608,1 51776U 22017J   22297.52606713 -.00000695  00000-0 -25546-4 0  9998,2 51776  53.2183 110.5185 0001634  60.2039 299.9116 15.08833810 36558,6917.899,95.438,540.895,538.634,0.0
51776.0,STARLINK-3608,PAYLOAD,2022-10-24 17:23:41,15.08830322,0.0001656,53.2182,109.6265,64.4143,295.702,-5.5639e-05,-1.173e-05,0.0,0 STARLINK-3608,1 51776U 22017J   22297.72479118 -.00001173  00000-0 -55639-4 0  9995,2 51776  53.2182 109.6265 0001656  64.4143 295.7020 15.08830322 36587,6917.91,95.438,540.9209999999998,538.629,0.0
51776.0,STARLINK-3608,PAYLOAD,2022-10-24 20:34:28,15.088290099999998,0.0001671,53.2182,109.0318,60.5154,299.6005,-6.4755e-05,-1.318e-05,0.0,0 STARLINK-3608,1 51776U 22017J   22297.85727314 -.00001318  00000-0 -64755-4 0  9993,2 51776  53.2182 109.0318 0001671  60.5154 299.6005 15.08829010 38092,6917.9140000000025,95.438,540.935,538.623,0.0
51776.0,STARLINK-3608,PAYLOAD,2022-10-25 10:52:56,15.08828958,0.0001728,53.218,106.3556,55.7796,304.336,-2.9376e-05,-7.55e-06,0.0,0 STARLINK-3608,1 51776U 22017J   22298.45343413 -.00000755  00000-0 -29376-4 0  9998,2 51776  53.2180 106.3556 0001728  55.7796 304.3360 15.08828958 36697,6917.9140000000025,95.438,540.975,538.5840000000002,0.0
51776.0,STARLINK-3608,PAYLOAD,2022-10-25 18:49:52,15.08832266,0.0001785,53.2183,104.8691,57.4077,302.7087,9.0595e-07,-2.74e-06,0.0,0 STARLINK-3608,1 51776U 22017J   22298.78463284 -.00000274  00000-0  90595-6 0  9991,2 51776  53.2183 104.8691 0001785  57.4077 302.7087 15.08832266 36748,6917.904,95.438,541.004,538.534,0.0
51776.0,STARLINK-3608,PAYLOAD,2022-10-26 10:43:43,15.08836359,0.0001829,53.2186,101.8958,58.4222,301.6949,4.4926e-05,4.27e-06,0.0,0 STARLINK-3608,1 51776U 22017J   22299.44703090  .00000427  00000-0  44926-4 0  9991,2 51776  53.2186 101.8958 0001829  58.4222 301.6949 15.08836359 36849,6917.892,95.438,541.0219999999998,538.491,0.0
51776.0,STARLINK-3608,PAYLOAD,2022-10-26 20:16:02,15.08837661,0.0001853,53.2184,100.1114,59.8132,300.3044,0.00011407,1.528e-05,0.0,0 STARLINK-3608,1 51776U 22017J   22299.84446826  .00001528  00000-0  11407-3 0  9996,2 51776  53.2184 100.1114 0001853  59.8132 300.3044 15.08837661 38396,6917.888000000001,95.438,541.034,538.471,0.0
51776.0,STARLINK-3608,PAYLOAD,2022-10-27 10:34:29,15.08846318,0.0001872,53.2185,97.4355,59.767,300.3508,0.00011675,1.571e-05,0.0,0 STARLINK-3608,1 51776U 22017J   22300.44062176  .00001571  00000-0  11675-3 0  9992,2 51776  53.2185  97.4355 0001872  59.7670 300.3508 15.08846318 38483,6917.861,95.437,541.021,538.431,0.0
51776.0,STARLINK-3608,PAYLOAD,2022-10-27 16:56:02,15.0884656,0.0001904,53.2188,96.2465,60.1335,299.9847,0.00010621,1.403e-05,0.0,0 STARLINK-3608,1 51776U 22017J   22300.70558074  .00001403  00000-0  10621-3 0  9992,2 51776  53.2188  96.2465 0001904  60.1335 299.9847 15.08846560 37033,6917.86,95.437,541.0419999999998,538.408,0.0
51776.0,STARLINK-3608,PAYLOAD,2022-10-28 08:49:53,15.08844503,0.0001925,53.2189,93.2729,60.5575,299.5609,1.024e-05,-1.25e-06,0.0,0 STARLINK-3608,1 51776U 22017J   22301.36798241 -.00000125  00000-0  10240-4 0  9996,2 51776  53.2189  93.2729 0001925  60.5575 299.5609 15.08844503 37135,6917.8669999999975,95.437,541.063,538.4,0.0
51776.0,STARLINK-3608,PAYLOAD,2022-10-28 19:57:35,15.08844018,0.0001808,53.2185,91.1913,55.5421,304.5742,-2.4736e-05,-6.82e-06,0.0,0 STARLINK-3608,1 51776U 22017J   22301.83166138 -.00000682  00000-0 -24736-4 0  9996,2 51776  53.2185  91.1913 0001808  55.5421 304.5742 15.08844018 38695,6917.868,95.437,540.984,538.482,0.0
51776.0,STARLINK-3608,PAYLOAD,2022-10-29 08:40:40,15.08846238,0.0001835,53.2187,88.8124,57.4719,302.6451,-5.3349e-05,-1.137e-05,0.0,0 STARLINK-3608,1 51776U 22017J   22302.36157843 -.00001137  00000-0 -53349-4 0  9996,2 51776  53.2187  88.8124 0001835  57.4719 302.6451 15.08846238 37281,6917.861,95.437,540.996,538.457,0.0
